FLOCK 4G-25             
1 62646U 25009AP  26068.74572546  .00010373  00000+0  38902-3 0  9990
2 62646  97.4049 151.4141 0000828 316.3151  43.8023 15.27424196 63734
STARLINK-34078          
1 64012U 25101U   26068.20080533  .00028795  00000+0  10502-2 0  9995
2 64012  43.0028   0.4462 0001233 261.5037  98.5675 15.27629618 46985
